CCSDS_OMM_VERS = 2.0
CREATION_DATE  = 
ORIGINATOR     = 

OBJECT_NAME    = STARLINK-36411
OBJECT_ID      = 2026-018V
CENTER_NAME    = EARTH
REF_FRAME      = TEME
TIME_SYSTEM    = UTC
MEAN_ELEMENT_THEORY = SGP/SGP4

EPOCH          = 2026-02-06T12:00:01.999296
MEAN_MOTION    = 15.95942694
ECCENTRICITY   = .0001351
INCLINATION    = 97.2763
RA_OF_ASC_NODE = 101.6616
ARG_OF_PERICENTER = 88.3970
MEAN_ANOMALY   = 175.7811

EPHEMERIS_TYPE = 0
CLASSIFICATION_TYPE = U
NORAD_CAT_ID   = 67608
ELEMENT_SET_NO = 999
REV_AT_EPOCH   = 238
BSTAR          = -.39774E-2
MEAN_MOTION_DOT = -.1599066E-1
MEAN_MOTION_DDOT = .74798E-3

CCSDS_OMM_VERS = 2.0
CREATION_DATE  = 
ORIGINATOR     = 

OBJECT_NAME    = STARLINK-36312
OBJECT_ID      = 2026-018W
CENTER_NAME    = EARTH
REF_FRAME      = TEME
TIME_SYSTEM    = UTC
MEAN_ELEMENT_THEORY = SGP/SGP4

EPOCH          = 2026-02-06T12:00:01.999296
MEAN_MOTION    = 15.96140387
ECCENTRICITY   = .0001331
INCLINATION    = 97.2764
RA_OF_ASC_NODE = 101.6631
ARG_OF_PERICENTER = 84.6981
MEAN_ANOMALY   = 182.8103

EPHEMERIS_TYPE = 0
CLASSIFICATION_TYPE = U
NORAD_CAT_ID   = 67609
ELEMENT_SET_NO = 999
REV_AT_EPOCH   = 239
BSTAR          = -.39198E-2
MEAN_MOTION_DOT = -.1592816E-1
MEAN_MOTION_DDOT = .74413E-3

CCSDS_OMM_VERS = 2.0
CREATION_DATE  = 
ORIGINATOR     = 

OBJECT_NAME    = STARLINK-36387
OBJECT_ID      = 2026-018X
CENTER_NAME    = EARTH
REF_FRAME      = TEME
TIME_SYSTEM    = UTC
MEAN_ELEMENT_THEORY = SGP/SGP4

EPOCH          = 2026-02-06T12:00:01.999296
MEAN_MOTION    = 15.96386938
ECCENTRICITY   = .0001254
INCLINATION    = 97.2760
RA_OF_ASC_NODE = 101.6647
ARG_OF_PERICENTER = 85.7757
MEAN_ANOMALY   = 185.6819

EPHEMERIS_TYPE = 0
CLASSIFICATION_TYPE = U
NORAD_CAT_ID   = 67610
ELEMENT_SET_NO = 999
REV_AT_EPOCH   = 239
BSTAR          = -.38665E-2
MEAN_MOTION_DOT = -.1592191E-1
MEAN_MOTION_DDOT = .74554E-3

CCSDS_OMM_VERS = 2.0
CREATION_DATE  = 
ORIGINATOR     = 

OBJECT_NAME    = STARLINK-36636
OBJECT_ID      = 2026-018Y
CENTER_NAME    = EARTH
REF_FRAME      = TEME
TIME_SYSTEM    = UTC
MEAN_ELEMENT_THEORY = SGP/SGP4

EPOCH          = 2026-02-06T12:00:01.999296
MEAN_MOTION    = 15.96556177
ECCENTRICITY   = .0001356
INCLINATION    = 97.2760
RA_OF_ASC_NODE = 101.6662
ARG_OF_PERICENTER = 89.2441
MEAN_ANOMALY   = 185.1872

EPHEMERIS_TYPE = 0
CLASSIFICATION_TYPE = U
NORAD_CAT_ID   = 67611
ELEMENT_SET_NO = 999
REV_AT_EPOCH   = 234
BSTAR          = -.37902E-2
MEAN_MOTION_DOT = -.1575362E-1
MEAN_MOTION_DDOT = .73229E-3

CCSDS_OMM_VERS = 2.0
CREATION_DATE  = 
ORIGINATOR     = 

OBJECT_NAME    = STARLINK-36407
OBJECT_ID      = 2026-018Z
CENTER_NAME    = EARTH
REF_FRAME      = TEME
TIME_SYSTEM    = UTC
MEAN_ELEMENT_THEORY = SGP/SGP4

EPOCH          = 2026-02-06T12:00:01.999296
MEAN_MOTION    = 15.96706471
ECCENTRICITY   = .000127
INCLINATION    = 97.2760
RA_OF_ASC_NODE = 101.6674
ARG_OF_PERICENTER = 85.0384
MEAN_ANOMALY   = 191.9438

EPHEMERIS_TYPE = 0
CLASSIFICATION_TYPE = U
NORAD_CAT_ID   = 67612
ELEMENT_SET_NO = 999
REV_AT_EPOCH   = 243
BSTAR          = -.37551E-2
MEAN_MOTION_DOT = -.1573525E-1
MEAN_MOTION_DDOT = .73189E-3

CCSDS_OMM_VERS = 2.0
CREATION_DATE  = 
ORIGINATOR     = 

OBJECT_NAME    = STARLINK-36597
OBJECT_ID      = 2026-018AA
CENTER_NAME    = EARTH
REF_FRAME      = TEME
TIME_SYSTEM    = UTC
MEAN_ELEMENT_THEORY = SGP/SGP4

EPOCH          = 2026-02-06T12:00:01.999296
MEAN_MOTION    = 15.96869950
ECCENTRICITY   = .000136
INCLINATION    = 97.2755
RA_OF_ASC_NODE = 101.6683
ARG_OF_PERICENTER = 91.6963
MEAN_ANOMALY   = 188.1043

EPHEMERIS_TYPE = 0
CLASSIFICATION_TYPE = U
NORAD_CAT_ID   = 67613
ELEMENT_SET_NO = 999
REV_AT_EPOCH   = 234
BSTAR          = -.37066E-2
MEAN_MOTION_DOT = -.1567143E-1
MEAN_MOTION_DDOT = .72766E-3

CCSDS_OMM_VERS = 2.0
CREATION_DATE  = 
ORIGINATOR     = 

OBJECT_NAME    = NEONSAT-1A
OBJECT_ID      = 2026-019A
CENTER_NAME    = EARTH
REF_FRAME      = TEME
TIME_SYSTEM    = UTC
MEAN_ELEMENT_THEORY = SGP/SGP4

EPOCH          = 2026-02-06T07:41:00.882240
MEAN_MOTION    = 15.07560115
ECCENTRICITY   = .0011705
INCLINATION    = 97.4093
RA_OF_ASC_NODE = 162.0299
ARG_OF_PERICENTER = 283.3038
MEAN_ANOMALY   = 76.6885

EPHEMERIS_TYPE = 0
CLASSIFICATION_TYPE = U
NORAD_CAT_ID   = 67614
ELEMENT_SET_NO = 999
REV_AT_EPOCH   = 109
BSTAR          = .32638E-3
MEAN_MOTION_DOT = .4909E-4
MEAN_MOTION_DDOT = 0

CCSDS_OMM_VERS = 2.0
CREATION_DATE  = 
ORIGINATOR     = 

OBJECT_NAME    = ELECTRON R/B
OBJECT_ID      = 2026-019B
CENTER_NAME    = EARTH
REF_FRAME      = TEME
TIME_SYSTEM    = UTC
MEAN_ELEMENT_THEORY = SGP/SGP4

EPOCH          = 2026-02-06T07:46:34.864896
MEAN_MOTION    = 15.89975614
ECCENTRICITY   = .018627
INCLINATION    = 97.4330
RA_OF_ASC_NODE = 162.8702
ARG_OF_PERICENTER = 200.6527
MEAN_ANOMALY   = 158.7150

EPHEMERIS_TYPE = 0
CLASSIFICATION_TYPE = U
NORAD_CAT_ID   = 67615
ELEMENT_SET_NO = 999
REV_AT_EPOCH   = 114
BSTAR          = .15125235E-2
MEAN_MOTION_DOT = .2361956E-1
MEAN_MOTION_DDOT = .2179284E-5

CCSDS_OMM_VERS = 2.0
CREATION_DATE  = 
ORIGINATOR     = 

OBJECT_NAME    = ELECTRON KICK STAGE R/B
OBJECT_ID      = 2026-019C
CENTER_NAME    = EARTH
REF_FRAME      = TEME
TIME_SYSTEM    = UTC
MEAN_ELEMENT_THEORY = SGP/SGP4

EPOCH          = 2026-02-06T07:00:43.917408
MEAN_MOTION    = 15.57439711
ECCENTRICITY   = .0196473
INCLINATION    = 97.4061
RA_OF_ASC_NODE = 162.5200
ARG_OF_PERICENTER = 236.1471
MEAN_ANOMALY   = 122.0953

EPHEMERIS_TYPE = 0
CLASSIFICATION_TYPE = U
NORAD_CAT_ID   = 67616
ELEMENT_SET_NO = 999
REV_AT_EPOCH   = 112
BSTAR          = .18405E-2
MEAN_MOTION_DOT = .340517E-2
MEAN_MOTION_DDOT = .3288E-4

CCSDS_OMM_VERS = 2.0
CREATION_DATE  = 
ORIGINATOR     = 

OBJECT_NAME    = STARLINK-36548
OBJECT_ID      = 2026-020A
CENTER_NAME    = EARTH
REF_FRAME      = TEME
TIME_SYSTEM    = UTC
MEAN_ELEMENT_THEORY = SGP/SGP4

EPOCH          = 2026-02-06T12:00:01.999296
MEAN_MOTION    = 15.90415698
ECCENTRICITY   = .0001523
INCLINATION    = 42.9998
RA_OF_ASC_NODE = 332.1006
ARG_OF_PERICENTER = 254.9663
MEAN_ANOMALY   = 312.1226

EPHEMERIS_TYPE = 0
CLASSIFICATION_TYPE = U
NORAD_CAT_ID   = 67617
ELEMENT_SET_NO = 999
REV_AT_EPOCH   = 237
BSTAR          = -.62539E-2
MEAN_MOTION_DOT = -.172649E-1
MEAN_MOTION_DDOT = 0

CCSDS_OMM_VERS = 2.0
CREATION_DATE  = 
ORIGINATOR     = 

OBJECT_NAME    = STARLINK-36601
OBJECT_ID      = 2026-020B
CENTER_NAME    = EARTH
REF_FRAME      = TEME
TIME_SYSTEM    = UTC
MEAN_ELEMENT_THEORY = SGP/SGP4

EPOCH          = 2026-02-06T12:00:01.999296
MEAN_MOTION    = 15.90542420
ECCENTRICITY   = .0001577
INCLINATION    = 43.0000
RA_OF_ASC_NODE = 332.0959
ARG_OF_PERICENTER = 261.3070
MEAN_ANOMALY   = 307.7067

EPHEMERIS_TYPE = 0
CLASSIFICATION_TYPE = U
NORAD_CAT_ID   = 67618
ELEMENT_SET_NO = 999
REV_AT_EPOCH   = 237
BSTAR          = -.62275E-2
MEAN_MOTION_DOT = -.1730065E-1
MEAN_MOTION_DDOT = 0

CCSDS_OMM_VERS = 2.0
CREATION_DATE  = 
ORIGINATOR     = 

OBJECT_NAME    = STARLINK-36119
OBJECT_ID      = 2026-020C
CENTER_NAME    = EARTH
REF_FRAME      = TEME
TIME_SYSTEM    = UTC
MEAN_ELEMENT_THEORY = SGP/SGP4

EPOCH          = 2026-02-06T12:00:01.999296
MEAN_MOTION    = 15.90618171
ECCENTRICITY   = .0001548
INCLINATION    = 42.9999
RA_OF_ASC_NODE = 332.0922
ARG_OF_PERICENTER = 259.1881
MEAN_ANOMALY   = 311.2719

EPHEMERIS_TYPE = 0
CLASSIFICATION_TYPE = U
NORAD_CAT_ID   = 67619
ELEMENT_SET_NO = 999
REV_AT_EPOCH   = 237
BSTAR          = -.61547E-2
MEAN_MOTION_DOT = -.1718372E-1
MEAN_MOTION_DDOT = 0

