STARLINK-36411          
1 67608U 26018V   26037.50002314 -.01599066  74798-3 -39774-2 0  9995
2 67608  97.2763 101.6616 0001351  88.3970 175.7811 15.95942694  2386
STARLINK-36312          
1 67609U 26018W   26037.50002314 -.01592816  74413-3 -39198-2 0  9996
2 67609  97.2764 101.6631 0001331  84.6981 182.8103 15.96140387  2398
STARLINK-36387          
1 67610U 26018X   26037.50002314 -.01592191  74554-3 -38665-2 0  9998
2 67610  97.2760 101.6647 0001254  85.7757 185.6819 15.96386938  2399
STARLINK-36636          
1 67611U 26018Y   26037.50002314 -.01575362  73229-3 -37902-2 0  9991
2 67611  97.2760 101.6662 0001356  89.2441 185.1872 15.96556177  2342
STARLINK-36407          
1 67612U 26018Z   26037.50002314 -.01573525  73189-3 -37551-2 0  9996
2 67612  97.2760 101.6674 0001270  85.0384 191.9438 15.96706471  2438
STARLINK-36597          
1 67613U 26018AA  26037.50002314 -.01567143  72766-3 -37066-2 0  9997
2 67613  97.2755 101.6683 0001360  91.6963 188.1043 15.96869950  2341
NEONSAT-1A              
1 67614U 26019A   26037.32014910  .00004909  00000+0  32638-3 0  9996
2 67614  97.4093 162.0299 0011705 283.3038  76.6885 15.07560115  1099
ELECTRON R/B            
1 67615U 26019B   26037.32401464  .02361956  21793-5  15125-2 0  9990
2 67615  97.4330 162.8702 0186270 200.6527 158.7150 15.89975614  1143
ELECTRON KICK STAGE R/B 
1 67616U 26019C   26037.29217497  .00340517  32880-4  18405-2 0  9998
2 67616  97.4061 162.5200 0196473 236.1471 122.0953 15.57439711  1124
STARLINK-36548          
1 67617U 26020A   26037.50002314 -.01726490  00000+0 -62539-2 0  9997
2 67617  42.9998 332.1006 0001523 254.9663 312.1226 15.90415698  2378
STARLINK-36601          
1 67618U 26020B   26037.50002314 -.01730065  00000+0 -62275-2 0  9998
2 67618  43.0000 332.0959 0001577 261.3070 307.7067 15.90542420  2371
STARLINK-36119          
1 67619U 26020C   26037.50002314 -.01718372  00000+0 -61547-2 0  9997
2 67619  42.9999 332.0922 0001548 259.1881 311.2719 15.90618171  2371
